     2.10           NAVIGATION                              RINEX VERSION / TYPE
fic2rin                                 06/10/2008 01:48:32 PGM / RUN BY / DATE
                                                            END OF HEADER
 2 08  6  9 12  0  0.0  .206138007343D-03  .113686837722D-12  .000000000000D+00
     .600000000000D+02  .284687500000D+02  .542629745564D-08  .445600266548D+00
     .146403908730D-05  .878656562418D-02  .606663525105D-05  .515373125458D+04
     .129600000000D+06  .316649675369D-07 -.421247013692D+00 -.122934579849D-06
     .943483700889D+00  .253437500000D+03  .257611519034D+01 -.854178437103D-08
     .133219834855D-09  .100000000000D+01  .148300000000D+04  .000000000000D+00
     .340000000000D+01  .000000000000D+00 -.172294676304D-07  .600000000000D+02
     .122406000000D+06  .400000000000D+01
 3 08  6  9 12  0  0.0  .239741522819D-03  .522959453519D-11  .000000000000D+00
     .400000000000D+01  .731250000000D+01  .528307720423D-08  .391639671536D-01
     .402331352234D-06  .106594975805D-01  .103451311588D-04  .515368927193D+04
     .129600000000D+06  .130385160446D-07 -.156529216189D+01  .212341547012D-06
     .925539764240D+00  .164500000000D+03  .815028559680D+00 -.851964059151D-08
     .330728061866D-09  .100000000000D+01  .148300000000D+04  .000000000000D+00
     .240000000000D+01  .000000000000D+00 -.419095158577D-08  .400000000000D+01
     .122406000000D+06  .400000000000D+01
 4 08  6  9 12  0  0.0 -.868267379701D-04 -.909494701773D-11  .000000000000D+00
     .790000000000D+02  .308437500000D+02  .532129308179D-08  .313380873567D+01
     .159442424774D-05  .806323008146D-02  .632740557194D-05  .515378322983D+04
     .129600000000D+06 -.137835741043D-06 -.402408210054D+00 -.763684511185D-07
     .942796575582D+00  .250250000000D+03  .376859974028D+00 -.827141596625D-08
     .978612191697D-10  .100000000000D+01  .148300000000D+04  .000000000000D+00
     .240000000000D+01  .000000000000D+00 -.605359673500D-08  .790000000000D+02
     .122406000000D+06  .400000000000D+01
 5 08  6  9 12  0  0.0 -.395427923650D-03  .909494701773D-11  .000000000000D+00
     .570000000000D+02 -.794062500000D+02  .466162274673D-08  .275645443577D+01
    -.408664345741D-05  .883645529393D-02  .729784369469D-05  .515358537483D+04
     .129600000000D+06  .670552253723D-07 -.259816671276D+01 -.279396772385D-07
     .942884659342D+00  .227750000000D+03  .122440170223D+01 -.806283584948D-08
    -.146434671020D-10  .100000000000D+01  .148300000000D+04  .000000000000D+00
     .240000000000D+01  .000000000000D+00 -.419095158577D-08  .570000000000D+02
     .122406000000D+06  .400000000000D+01
 6 08  6  9 12  0  0.0  .144853722304D-03  .670752342558D-11  .000000000000D+00
     .540000000000D+02  .129375000000D+02  .502378068920D-08  .271494962268D+01
     .504776835442D-06  .593186879996D-02  .103320926428D-04  .515373770523D+04
     .129600000000D+06  .596046447754D-07 -.150053241534D+01 -.745058059692D-08
     .933098454222D+00  .165625000000D+03 -.166425947257D+01 -.813712465819D-08
     .330013746397D-09  .100000000000D+01  .148300000000D+04  .000000000000D+00
     .240000000000D+01  .000000000000D+00 -.465661287308D-08  .540000000000D+02
     .122406000000D+06  .400000000000D+01
 7 08  6  9 12  0  0.0 -.244751572609D-04  .761701812735D-11  .000000000000D+00
     .260000000000D+02 -.450000000000D+01  .454447500991D-08 -.118356868306D+01
    -.206753611565D-06  .173222983722D-02  .425986945629D-05  .515370719337D+04
     .129600000000D+06 -.134110450745D-06  .272990123208D+01  .558793544769D-08
     .962728083935D+00  .299562500000D+03  .261297281009D+01 -.825820113008D-08
     .853606984729D-10  .100000000000D+01  .148300000000D+04  .000000000000D+00
     .240000000000D+01  .000000000000D+00 -.107102096081D-07  .260000000000D+02
     .122406000000D+06  .400000000000D+01
 8 08  6  9 12  0  0.0 -.156681053340D-03 -.170530256582D-11  .000000000000D+00
     .107000000000D+03 -.107500000000D+02  .411159983607D-08 -.203931538334D+01
    -.575557351112D-06  .101876717526D-01  .465661287308D-05  .515360456657D+04
     .129600000000D+06 -.201165676117D-06  .278293992684D+01 -.670552253723D-07
     .983932903018D+00  .303000000000D+03  .288150976999D+01 -.804783522464D-08
     .121433629627D-09  .100000000000D+01  .148300000000D+04  .000000000000D+00
     .240000000000D+01  .000000000000D+00 -.372529029846D-08  .107000000000D+03
     .122406000000D+06  .400000000000D+01
 9 08  6  9 12  0  0.0  .419095158577D-08  .147792889038D-11  .000000000000D+00
     .190000000000D+02 -.118125000000D+02  .415410160643D-08 -.242319820971D+01
    -.473111867905D-06  .199695490301D-01  .387243926525D-05  .515366818619D+04
     .129600000000D+06  .229105353355D-06  .269333306676D+01  .279396772385D-07
     .971746630108D+00  .308187500000D+03  .140755345741D+01 -.779782481070D-08
     .111790370803D-09  .100000000000D+01  .148300000000D+04  .000000000000D+00
     .485000000000D+01  .630000000000D+02 -.558793544769D-08  .190000000000D+02
     .122406000000D+06  .400000000000D+01
10 08  6  9 12  0  0.0 -.209733843803D-05 -.227373675443D-12  .000000000000D+00
     .660000000000D+02 -.200000000000D+01  .470412451710D-08  .125347759112D+01
     .182539224625D-06  .799188087694D-02  .812299549580D-05  .515364878082D+04
     .129600000000D+06 -.279396772385D-07  .660138974467D+00  .912696123123D-07
     .963682131812D+00  .226250000000D+03  .561286631590D+00 -.820605610089D-08
    -.461447792581D-09  .100000000000D+01  .148300000000D+04  .000000000000D+00
     .240000000000D+01  .000000000000D+00 -.232830643654D-08  .660000000000D+02
     .122406000000D+06  .400000000000D+01
11 08  6  9 12  0  0.0  .248416326940D-04 -.341060513165D-12  .000000000000D+00
     .420000000000D+02  .387500000000D+02  .652491464603D-08 -.165709804531D+01
     .182352960110D-05  .807524146512D-02  .568293035030D-05  .515362653542D+04
     .129600000000D+06  .111758708954D-06 -.603503359137D+00 -.113621354103D-06
     .891132903857D+00  .228250000000D+03  .591308430141D+00 -.897715964902D-08
     .302155443130D-09  .100000000000D+01  .148300000000D+04  .000000000000D+00
     .240000000000D+01  .000000000000D+00 -.116415321827D-07  .420000000000D+02
     .122406000000D+06  .400000000000D+01
12 08  6  9 12  0  0.0 -.358687248081D-03  .341060513165D-12  .000000000000D+00
     .840000000000D+02 -.749062500000D+02  .423767651624D-08 -.119270770200D+01
    -.385381281376D-05  .342560163699D-02  .822171568871D-05  .515359853935D+04
     .129600000000D+06 -.838190317154D-07 -.250450069974D+01  .689178705215D-07
     .964108320810D+00  .224281250000D+03 -.938980828801D+00 -.798747556756D-08
     .467876631797D-10  .100000000000D+01  .148300000000D+04  .000000000000D+00
     .240000000000D+01  .000000000000D+00 -.116415321827D-07  .840000000000D+02
     .122406000000D+06  .400000000000D+01
13 08  6  9 12  0  0.0  .259044580162D-03  .159161572810D-11  .000000000000D+00
     .900000000000D+02  .513125000000D+02  .362800826396D-08  .939976065136D+00
     .254623591900D-05  .381776725408D-02  .910274684429D-05  .515362856483D+04
     .129600000000D+06 -.540167093277D-07  .172958377092D+01 -.186264514923D-07
     .995272061511D+00  .223718750000D+03  .146767379480D+01 -.773817946909D-08
    -.189293599124D-10  .100000000000D+01  .148300000000D+04  .000000000000D+00
     .340000000000D+01  .000000000000D+00 -.111758708954D-07  .900000000000D+02
     .122406000000D+06  .400000000000D+01
14 08  6  9 12  0  0.0 -.257417559624D-03  .432009983342D-11  .000000000000D+00
     .430000000000D+02  .535000000000D+02  .387408994282D-08  .699681797904D+00
     .289641320705D-05  .374351511709D-02  .772252678871D-05  .515370360947D+04
     .129600000000D+06 -.391155481339D-07  .171219484783D+01  .502914190292D-07
     .989008545570D+00  .247781250000D+03 -.216824678192D+01 -.786925635754D-08
    -.571452374714D-10  .100000000000D+01  .148300000000D+04  .000000000000D+00
     .240000000000D+01  .000000000000D+00 -.884756445885D-08  .430000000000D+02
     .122406000000D+06  .400000000000D+01
15 08  6  9 12  0  0.0 -.123930163682D-03 -.602540239925D-11  .000000000000D+00
     .650000000000D+02  .420000000000D+02  .453876048616D-08  .162566041270D+01
     .206567347050D-05  .644951243885D-03  .780820846558D-05  .515366640854D+04
     .129600000000D+06 -.130385160446D-07  .167071530811D+01 -.223517417908D-07
     .957398480267D+00  .223375000000D+03 -.126033637866D+01 -.812712424163D-08
    -.953611150304D-10  .100000000000D+01  .148300000000D+04  .000000000000D+00
     .340000000000D+01  .000000000000D+00 -.977888703346D-08  .650000000000D+02
     .122406000000D+06  .400000000000D+01
16 08  6  9 12  0  0.0  .121925957501D-03 -.147792889038D-11  .000000000000D+00
     .800000000000D+02 -.779375000000D+02  .425017703693D-08  .253703299153D+01
    -.400654971600D-05  .479287945200D-02  .850111246109D-05  .515361451912D+04
     .129600000000D+06  .130385160446D-07 -.248811943756D+01  .782310962677D-07
     .965780842866D+00  .217593750000D+03 -.482077989878D+00 -.794140221985D-08
    -.108218793461D-09  .100000000000D+01  .148300000000D+04  .000000000000D+00
     .240000000000D+01  .000000000000D+00 -.977888703346D-08  .800000000000D+02
     .122406000000D+06  .400000000000D+01
17 08  6  9 12  0  0.0  .386768952012D-04 -.227373675443D-12  .000000000000D+00
     .340000000000D+02  .337500000000D+01  .451054502516D-08  .129417246839D+01
     .186264514923D-08  .359202653635D-02  .102762132883D-04  .515376595116D+04
     .129600000000D+06 -.186264514923D-08 -.144698467775D+01  .465661287308D-07
     .959209120807D+00  .178593750000D+03 -.277002210711D+01 -.796604610351D-08
     .315370279295D-09  .100000000000D+01  .148300000000D+04  .000000000000D+00
     .240000000000D+01  .000000000000D+00 -.102445483208D-07  .340000000000D+02
     .122406000000D+06  .400000000000D+01
